1 45096U 20006BE  23001.60497131 -.00001469  00000-0 -79774-4 0  9999
2 45096  53.0563  67.9106 0001221  95.8590 264.2539 15.06397752161711
1 45096U 20006BE  23001.87035977 -.00000711  00000-0 -28877-4 0  9991
2 45096  53.0565  66.7194 0001155  97.5260 262.5860 15.06395487161751
1 45096U 20006BE  23002.60017261  .00002072  00000-0  15793-3 0  9991
2 45096  53.0555  63.4432 0001285 100.3053 259.8081 15.06400551161861
1 45096U 20006BE  23002.86556189  .00001005  00000-0  86339-4 0  9996
2 45096  53.0556  62.2517 0001257  97.9799 262.1332 15.06396842161908
1 45096U 20006BE  23003.52903062  .00000361  00000-0  43119-4 0  9999
2 45096  53.0551  59.2730 0001202  97.2141 262.8984 15.06402403162003
1 45096U 20006BE  23004.45788673  .00003574  00000-0  25868-3 0  9990
2 45096  53.0555  55.1040 0001427  96.7163 263.3988 15.06405982162143
1 45096U 20006BE  23004.85596655  .00001785  00000-0  13867-3 0  9999
2 45096  53.0548  53.3163 0001282  85.5157 274.5979 15.06405860162205
1 45096U 20006BE  23005.51943326  .00001478  00000-0  11811-3 0  9990
2 45096  53.0550  50.3378 0001265  85.6045 274.5089 15.06404857162657
1 45096U 20006BE  23006.51464596 -.00001631  00000-0 -90662-4 0  9993
2 45096  53.0551  45.8715 0001426  77.9495 282.1653 15.06390657162456
1 45096U 20006BE  23007.11176055  .00000960  00000-0  83309-4 0  9992
2 45096  53.0564  43.1920 0001483  68.8869 291.2278 15.06402093162548
1 45096U 20006BE  23007.77522345  .00001867  00000-0  14419-3 0  9993
2 45096  53.0555  40.2120 0001314  73.3662 286.7471 15.06409518162647
1 45096U 20006BE  23008.10696460  .00001797  00000-0  13951-3 0  9993
2 45096  53.0549  38.7236 0001475  73.3016 286.8135 15.06396768162696
1 45096U 20006BE  23008.77042874  .00000739  00000-0  68527-4 0  9995
2 45096  53.0542  35.7452 0001462  76.8180 283.2972 15.06401516162791
1 45096U 20006BE  23009.43389907 -.00000625  00000-0 -23068-4 0  9997
2 45096  53.0556  32.7662 0001496  76.5030 283.6126 15.06402804162891
1 45096U 20006BE  23010.42910109 -.00000026  00000-0  17162-4 0  9994
2 45096  53.0554  28.2971 0001409  82.9397 277.1752 15.06397056163046
1 45096U 20006BE  23010.76083384  .00000768  00000-0  70465-4 0  9994
2 45096  53.0558  26.8080 0001383  78.2276 281.8868 15.06396239163097
1 45096U 20006BE  23011.29160097  .00002090  00000-0  15913-3 0  9996
2 45096  53.0563  24.4259 0001444  75.4940 284.6209 15.06406817163173
1 45096U 20006BE  23011.82237434  .00001907  00000-0  14685-3 0  9996
2 45096  53.0551  22.0432 0001560  75.4913 284.6249 15.06408266163259
1 45096U 20006BE  23012.28679801  .00003588  00000-0  25956-3 0  9995
2 45096  53.0550  19.9583 0001467  72.9040 287.2110 15.06411663163328
1 45096U 20006BE  23013.28202164 -.00004814  00000-0 -30469-3 0  9990
2 45096  53.0549  15.4911 0001371  86.5794 273.5351 15.06377282163472
1 45096U 20006BE  23015.27245634  .00002687  00000-0  19932-3 0  9996
2 45096  53.0549   6.5557 0001368  95.1444 264.9701 15.06375948163776
1 45096U 20006BE  23015.73687890  .00007420  00000-0  51650-3 0  9994
2 45096  53.0561   4.4715 0001322 100.8330 259.2808 15.06398220163842
1 45096U 20006BE  23016.26764024  .00045449  00000-0  30447-2 0  9991
2 45096  53.0542   2.0884 0001543 101.1246 258.9916 15.06470466163925
1 45096U 20006BE  23016.93110466 -.00018327  00000-0 -12150-2 0  9998
2 45096  53.0539 359.1097 0001473  83.8360 276.2797 15.06388850164025
1 45096U 20006BE  23017.32919726  .00030193  00000-0  20383-2 0  9998
2 45096  53.0538 357.3224 0001666  77.9806 282.1370 15.06379535164088
1 45096U 20006BE  23017.66093376  .00028557  00000-0  19284-2 0  9998
2 45096  53.0538 355.8331 0001686  78.3780 281.7398 15.06396915164130
1 45096U 20006BE  23018.32439487  .00037783  00000-0  25392-2 0  9997
2 45096  53.0538 352.8544 0001736  81.0899 279.0287 15.06438977164234
1 45096U 20006BE  23018.65612680  .00028001  00000-0  18895-2 0  9994
2 45096  53.0546 351.3650 0001822  83.4785 276.6412 15.06434802164282
1 45096U 20006BE  23019.31958804  .00019921  00000-0  13515-2 0  9994
2 45096  53.0547 348.3869 0001778  93.7021 266.4172 15.06425996164383
1 45096U 20006BE  23020.31479867  .00024433  00000-0  16533-2 0  9990
2 45096  53.0544 343.9187 0001405 110.2245 249.8895 15.06403865164539
1 45096U 20006BE  23025.22446986  .00023445  00000-0  15863-2 0  9998
2 45096  53.0544 321.8800 0001246  99.9436 260.1694 15.06430251165278
1 45096U 20006BE  23025.82159582  .00026725  00000-0  18062-2 0  9995
2 45096  53.0540 319.1970 0002064 105.2953 254.8264 15.06401119165360
1 45096U 20006BE  23026.08698325  .00021458  00000-0  14547-2 0  9999
2 45096  53.0543 318.0063 0001300  73.8285 286.2847 15.06408520165408
1 45096U 20006BE  23027.14854891  .00015447  00000-0  10540-2 0  9999
2 45096  53.0541 313.2398 0001353  92.3114 267.8030 15.06387789165568
1 45096U 20006BE  23028.21008884  .00020630  00000-0  13986-2 0  9998
2 45096  53.0540 308.4770 0001324 100.0266 260.0873 15.06432775166073
1 45096U 20006BE  23029.73606348  .00006800  00000-0  47497-3 0  9993
2 45096  53.0529 301.6259 0001541  92.5410 267.5756 15.06401626165953
1 45096U 20006BE  23030.13414194  .00006014  00000-0  42223-3 0  9994
2 45096  53.0528 299.8383 0001410 101.6048 258.5100 15.06406349166010
1 45096U 20006BE  23030.93030398  .00003006  00000-0  22055-3 0  9991
2 45096  53.0527 296.2645 0001378  97.3751 262.7394 15.06404933166138
1 45096U 20006BE  23031.12934314  .00002936  00000-0  21586-3 0  9993
2 45096  53.0530 295.3711 0001366  94.5882 265.5263 15.06407313166161
1 45096U 20006BE  23032.12454638  .00002448  00000-0  18317-3 0  9996
2 45096  53.0532 290.9024 0001400  93.5447 266.5702 15.06404056166313
1 45096U 20006BE  23033.11975190  .00000435  00000-0  48108-4 0  9993
2 45096  53.0534 286.4352 0001412  86.5152 273.5998 15.06398643166462
1 45096U 20006BE  23034.11495099  .00001315  00000-0  10718-3 0  9992
2 45096  53.0526 281.9678 0001360  89.1164 270.9981 15.06403700166619
1 45096U 20006BE  23034.71208018  .00000226  00000-0  34067-4 0  9995
2 45096  53.0522 279.2869 0001332  90.2035 269.9106 15.06393302166709
1 45096U 20006BE  23035.90630872  .00002649  00000-0  19657-3 0  9992
2 45096  53.0529 273.9248 0000992 104.0738 256.0362 15.06419078166882
1 45096U 20006BE  23036.03900964 -.00000362  00000-0 -53990-5 0  9991
2 45096  53.0539 273.3298 0001054  86.6929 273.4180 15.06405011166905
1 45096U 20006BE  23036.90154116 -.00001405  00000-0 -75496-4 0  9990
2 45096  53.0537 269.4573 0001114  93.0039 267.1077 15.06369237167035
1 45096U 20006BE  23037.89672250  .00004964  00000-0  35174-3 0  9992
2 45096  53.0534 264.9909 0001327  87.3264 272.7877 15.06415753167188
1 45096U 20006BE  23038.02941633  .00007866  00000-0  54609-3 0  9990
2 45096  53.0524 264.3949 0001283  84.9485 275.1650 15.06418568167200
1 45096U 20006BE  23038.89192674  .00005035  00000-0  35657-3 0  9996
2 45096  53.0519 260.5229 0001222  90.6644 269.4485 15.06410925167332
1 45096U 20006BE  23039.88713018  .00002394  00000-0  17957-3 0  9995
2 45096  53.0526 256.0546 0001062  89.7268 270.3843 15.06401296167481
1 45096U 20006BE  23040.01982548  .00007294  00000-0  50803-3 0  9999
2 45096  53.0520 255.4587 0001110  92.1771 267.9345 15.06400982167507
1 45096U 20006BE  23040.88233915  .00004927  00000-0  34946-3 0  9991
2 45096  53.0517 251.5859 0001048  93.5688 266.5420 15.06397861167638
1 45096U 20006BE  23041.08137938  .00007754  00000-0  53883-3 0  9994
2 45096  53.0531 250.6925 0000964  87.3137 272.7962 15.06403460167660
1 45096U 20006BE  23041.87754316  .00013394  00000-0  91627-3 0  9991
2 45096  53.0519 247.1184 0000854  69.3083 290.7997 15.06404927167782
1 45096U 20006BE  23041.94388869  .00011827  00000-0  81137-3 0  9999
2 45096  53.0523 246.8207 0000940  86.5663 273.5434 15.06408451167792
1 45096U 20006BE  23042.80640044  .00008400  00000-0  58207-3 0  9996
2 45096  53.0532 242.9485 0000976  89.4097 270.7003 15.06403980167927
1 45096U 20006BE  23043.53621737  .00003763  00000-0  27136-3 0  9999
2 45096  53.0527 239.6737 0001214  79.6100 280.5026 15.06400280168033
1 45096U 20006BE  23044.53141863  .00002036  00000-0  15554-3 0  9990
2 45096  53.0525 235.2062 0001183  79.7815 280.3307 15.06402001168182
1 45096U 20006BE  23045.52662134  .00000834  00000-0  74888-4 0  9999
2 45096  53.0517 230.7386 0001189  83.7133 276.3991 15.06398097168336
1 45096U 20006BE  23045.85835224  .00000826  00000-0  74323-4 0  9992
2 45096  53.0529 229.2482 0001172  87.3132 272.7991 15.06402489168386
1 45096U 20006BE  23046.52182308  .00000215  00000-0  33306-4 0  9993
2 45096  53.0519 226.2685 0001122  93.6548 266.4569 15.06396853168482
1 45096U 20006BE  23046.91989937  .00002097  00000-0  15963-3 0  9997
2 45096  53.0512 224.4820 0001328  88.0273 272.0868 15.06406160168542
1 45096U 20006BE  23047.45067743  .00000561  00000-0  56567-4 0  9999
2 45096  53.0530 222.0992 0001096  79.2575 280.8537 15.06395381168626
1 45096U 20006BE  23047.84875152  .00003328  00000-0  24217-3 0  9993
2 45096  53.0527 220.3124 0001094  73.2179 286.8930 15.06408499168686
1 45096U 20006BE  23048.44588153 -.00002427  00000-0 -14414-3 0  9991
2 45096  53.0514 217.6314 0001071  86.6025 273.5087 15.06388807168771
1 45096U 20006BE  23048.84396512  .00017710  00000-0  12051-2 0  9994
2 45096  53.0517 215.8450 0001072  81.9636 278.1475 15.06391466168836
1 45096U 20006BE  23049.44109029  .00008680  00000-0  60099-3 0  9998
2 45096  53.0525 213.1645 0001238  84.8434 275.2696 15.06394253168924
1 45096U 20006BE  23050.17090438  .00006486  00000-0  45389-3 0  9990
2 45096  53.0519 209.8870 0000752  81.8951 278.2123 15.06398573169030
1 45096U 20006BE  23050.90072048  .00006929  00000-0  48356-3 0  9997
2 45096  53.0532 206.6084 0001212  84.0103 276.1024 15.06405422169144
1 45096U 20006BE  23052.55939359  .00019393  00000-0  13163-2 0  9993
2 45096  53.0532 199.1650 0001254  78.2242 281.8888 15.06426752169391
1 45096U 20006BE  23052.69208339  .00022559  00000-0  15270-2 0  9994
2 45096  53.0535 198.5694 0001217  76.5877 283.5248 15.06437116169417
